KUIPER-00079            
1 64826U 25151L   26032.49645155 -.00008601  00000+0 -11024-2 0  9998
2 64826  51.8999 100.6154 0001109 124.7030 235.4037 14.79867127 31149
KUIPER-00080            
1 64827U 25151M   26032.59780697  .00002516  00000+0  35880-3 0  9995
2 64827  51.8998 100.1705 0000609 145.8897 214.2105 14.79939912 29965
KUIPER-00082            
1 64828U 25151N   26032.44247686 -.00000303  00000+0 -10739-4 0  9997
2 64828  51.9011  88.3799 0000792  67.3210 292.7836 14.79929415 30111
KUIPER-00083            
1 64829U 25151P   26032.36684985  .00004447  00000+0  61189-3 0  9991
2 64829  51.9009  96.2077 0001589 161.6458 198.4562 14.79943413 31183
KUIPER-00084            
1 64830U 25151Q   26032.69360423 -.00061458  00000+0 -81289-2 0  9996
2 64830  51.9007 104.7456 0005071 107.9841 252.1675 14.79805065 29908
KUIPER-00085            
1 64831U 25151R   26032.67881788  .00004581  00000+0  62929-3 0  9990
2 64831  51.9026  87.3584 0000206  73.5142 286.5843 14.79950312 30147
KUIPER-00086            
1 64832U 25151S   26032.39793215  .00004496  00000+0  61830-3 0  9992
2 64832  51.9007  98.5780 0001892 131.8612 228.2512 14.79938218 29966
KUIPER-00087            
1 64833U 25151T   26032.34858544  .00002856  00000+0  40232-3 0  9996
2 64833  51.8996  81.2750 0000917  67.1467 292.9592 14.80058160 30199
KUIPER-00089            
1 64834U 25151U   26032.34387560  .00004113  00000+0  56802-3 0  9990
2 64834  51.9001  86.3107 0000150  67.6858 292.4121 14.79940851 30130
KUIPER-00090            
1 64835U 25151V   26032.41950267  .00004041  00000+0  55863-3 0  9995
2 64835  51.8986  78.5134 0000619  99.5038 260.5994 14.79938659 30248
KUIPER-00091            
1 64836U 25151W   26032.81841915  .00004322  00000+0  59310-3 0  9992
2 64836  51.9011  81.7095 0003324 178.0124 182.0852 14.80118221 30233
KUIPER-00092            
1 64837U 25151X   26032.54101489  .00004513  00000+0  62008-3 0  9998
2 64837  51.9008  90.4423 0001302 147.1902 212.9141 14.79972813 31303
KUIPER-00093            
1 64838U 25151Y   26032.60581706  .00004772  00000+0  65372-3 0  9994
2 64838  51.8995  92.6393 0001353 171.4076 188.6910 14.79984426 30064
KUIPER-00094            
1 64839U 25151Z   26032.91670173  .00009227  00000+0  65702-3 0  9993
2 64839  51.8897  66.8747 0005150 144.4775 215.6542 15.05243030 30451
KUIPER-00081            
1 65132U 25171A   26032.92997803  .00004849  00000+0  66085-3 0  9995
2 65132  51.9012 306.1912 0001806  94.5295 265.5874 14.80173782 27746
KUIPER-00088            
1 65133U 25171B   26032.94843188  .00005278  00000+0  69098-3 0  9998
2 65133  51.9016 324.0015 0000663 145.3948 214.7059 14.81730650 27491
