[{"OBJECT_NAME":"KUIPER-00079","OBJECT_ID":"2025-151L","EPOCH":"2026-02-01T11:54:53.413920","MEAN_MOTION":14.79867127,"ECCENTRICITY":0.0001109,"INCLINATION":51.8999,"RA_OF_ASC_NODE":100.6154,"ARG_OF_PERICENTER":124.703,"MEAN_ANOMALY":235.4037,"EPHEMERIS_TYPE":0,"CLASSIFICATION_TYPE":"U","NORAD_CAT_ID":64826,"ELEMENT_SET_NO":999,"REV_AT_EPOCH":3114,"BSTAR":-0.001102372,"MEAN_MOTION_DOT":-8.601e-5,"MEAN_MOTION_DDOT":0},{"OBJECT_NAME":"KUIPER-00080","OBJECT_ID":"2025-151M","EPOCH":"2026-02-01T14:20:50.522208","MEAN_MOTION":14.79939912,"ECCENTRICITY":6.097e-5,"INCLINATION":51.8998,"RA_OF_ASC_NODE":100.1705,"ARG_OF_PERICENTER":145.8897,"MEAN_ANOMALY":214.2105,"EPHEMERIS_TYPE":0,"CLASSIFICATION_TYPE":"U","NORAD_CAT_ID":64827,"ELEMENT_SET_NO":999,"REV_AT_EPOCH":2996,"BSTAR":0.00035879945,"MEAN_MOTION_DOT":2.516e-5,"MEAN_MOTION_DDOT":0},{"OBJECT_NAME":"KUIPER-00082","OBJECT_ID":"2025-151N","EPOCH":"2026-02-01T10:37:10.000704","MEAN_MOTION":14.79929415,"ECCENTRICITY":7.925e-5,"INCLINATION":51.9011,"RA_OF_ASC_NODE":88.3799,"ARG_OF_PERICENTER":67.321,"MEAN_ANOMALY":292.7836,"EPHEMERIS_TYPE":0,"CLASSIFICATION_TYPE":"U","NORAD_CAT_ID":64828,"ELEMENT_SET_NO":999,"REV_AT_EPOCH":3011,"BSTAR":-1.0738718e-5,"MEAN_MOTION_DOT":-3.03e-6,"MEAN_MOTION_DDOT":0},{"OBJECT_NAME":"KUIPER-00083","OBJECT_ID":"2025-151P","EPOCH":"2026-02-01T08:48:15.827040","MEAN_MOTION":14.79943413,"ECCENTRICITY":0.00015892,"INCLINATION":51.9009,"RA_OF_ASC_NODE":96.2077,"ARG_OF_PERICENTER":161.6458,"MEAN_ANOMALY":198.4562,"EPHEMERIS_TYPE":0,"CLASSIFICATION_TYPE":"U","NORAD_CAT_ID":64829,"ELEMENT_SET_NO":999,"REV_AT_EPOCH":3118,"BSTAR":0.00061188508,"MEAN_MOTION_DOT":4.447e-5,"MEAN_MOTION_DDOT":0},{"OBJECT_NAME":"KUIPER-00084","OBJECT_ID":"2025-151Q","EPOCH":"2026-02-01T16:38:47.405472","MEAN_MOTION":14.79805065,"ECCENTRICITY":0.00050713,"INCLINATION":51.9007,"RA_OF_ASC_NODE":104.7456,"ARG_OF_PERICENTER":107.9841,"MEAN_ANOMALY":252.1675,"EPHEMERIS_TYPE":0,"CLASSIFICATION_TYPE":"U","NORAD_CAT_ID":64830,"ELEMENT_SET_NO":999,"REV_AT_EPOCH":2990,"BSTAR":-0.0081289358,"MEAN_MOTION_DOT":-0.00061458,"MEAN_MOTION_DDOT":0},{"OBJECT_NAME":"KUIPER-00085","OBJECT_ID":"2025-151R","EPOCH":"2026-02-01T16:17:29.864832","MEAN_MOTION":14.79950312,"ECCENTRICITY":2.061e-5,"INCLINATION":51.9026,"RA_OF_ASC_NODE":87.3584,"ARG_OF_PERICENTER":73.5142,"MEAN_ANOMALY":286.5843,"EPHEMERIS_TYPE":0,"CLASSIFICATION_TYPE":"U","NORAD_CAT_ID":64831,"ELEMENT_SET_NO":999,"REV_AT_EPOCH":3014,"BSTAR":0.00062928524,"MEAN_MOTION_DOT":4.581e-5,"MEAN_MOTION_DDOT":0},{"OBJECT_NAME":"KUIPER-00086","OBJECT_ID":"2025-151S","EPOCH":"2026-02-01T09:33:01.337760","MEAN_MOTION":14.79938218,"ECCENTRICITY":0.00018921,"INCLINATION":51.9007,"RA_OF_ASC_NODE":98.578,"ARG_OF_PERICENTER":131.8612,"MEAN_ANOMALY":228.2512,"EPHEMERIS_TYPE":0,"CLASSIFICATION_TYPE":"U","NORAD_CAT_ID":64832,"ELEMENT_SET_NO":999,"REV_AT_EPOCH":2996,"BSTAR":0.00061829809,"MEAN_MOTION_DOT":4.496e-5,"MEAN_MOTION_DDOT":0},{"OBJECT_NAME":"KUIPER-00087","OBJECT_ID":"2025-151T","EPOCH":"2026-02-01T08:21:57.782016","MEAN_MOTION":14.8005816,"ECCENTRICITY":9.176e-5,"INCLINATION":51.8996,"RA_OF_ASC_NODE":81.275,"ARG_OF_PERICENTER":67.1467,"MEAN_ANOMALY":292.9592,"EPHEMERIS_TYPE":0,"CLASSIFICATION_TYPE":"U","NORAD_CAT_ID":64833,"ELEMENT_SET_NO":999,"REV_AT_EPOCH":3019,"BSTAR":0.00040232301,"MEAN_MOTION_DOT":2.856e-5,"MEAN_MOTION_DDOT":0},{"OBJECT_NAME":"KUIPER-00089","OBJECT_ID":"2025-151U","EPOCH":"2026-02-01T08:15:10.851840","MEAN_MOTION":14.79940851,"ECCENTRICITY":1.501e-5,"INCLINATION":51.9001,"RA_OF_ASC_NODE":86.3107,"ARG_OF_PERICENTER":67.6858,"MEAN_ANOMALY":292.4121,"EPHEMERIS_TYPE":0,"CLASSIFICATION_TYPE":"U","NORAD_CAT_ID":64834,"ELEMENT_SET_NO":999,"REV_AT_EPOCH":3013,"BSTAR":0.00056802008,"MEAN_MOTION_DOT":4.113e-5,"MEAN_MOTION_DDOT":0},{"OBJECT_NAME":"KUIPER-00090","OBJECT_ID":"2025-151V","EPOCH":"2026-02-01T10:04:05.030688","MEAN_MOTION":14.79938659,"ECCENTRICITY":6.199e-5,"INCLINATION":51.8986,"RA_OF_ASC_NODE":78.5134,"ARG_OF_PERICENTER":99.5038,"MEAN_ANOMALY":260.5994,"EPHEMERIS_TYPE":0,"CLASSIFICATION_TYPE":"U","NORAD_CAT_ID":64835,"ELEMENT_SET_NO":999,"REV_AT_EPOCH":3024,"BSTAR":0.00055862851,"MEAN_MOTION_DOT":4.041e-5,"MEAN_MOTION_DDOT":0},{"OBJECT_NAME":"KUIPER-00091","OBJECT_ID":"2025-151W","EPOCH":"2026-02-01T19:38:31.414560","MEAN_MOTION":14.80118221,"ECCENTRICITY":0.00033243,"INCLINATION":51.9011,"RA_OF_ASC_NODE":81.7095,"ARG_OF_PERICENTER":178.0124,"MEAN_ANOMALY":182.0852,"EPHEMERIS_TYPE":0,"CLASSIFICATION_TYPE":"U","NORAD_CAT_ID":64836,"ELEMENT_SET_NO":999,"REV_AT_EPOCH":3023,"BSTAR":0.00059310402,"MEAN_MOTION_DOT":4.322e-5,"MEAN_MOTION_DDOT":0},{"OBJECT_NAME":"KUIPER-00092","OBJECT_ID":"2025-151X","EPOCH":"2026-02-01T12:59:03.686496","MEAN_MOTION":14.79972813,"ECCENTRICITY":0.00013025,"INCLINATION":51.9008,"RA_OF_ASC_NODE":90.4423,"ARG_OF_PERICENTER":147.1902,"MEAN_ANOMALY":212.9141,"EPHEMERIS_TYPE":0,"CLASSIFICATION_TYPE":"U","NORAD_CAT_ID":64837,"ELEMENT_SET_NO":999,"REV_AT_EPOCH":3130,"BSTAR":0.00062007544,"MEAN_MOTION_DOT":4.513e-5,"MEAN_MOTION_DDOT":0},{"OBJECT_NAME":"KUIPER-00093","OBJECT_ID":"2025-151Y","EPOCH":"2026-02-01T14:32:22.593984","MEAN_MOTION":14.79984426,"ECCENTRICITY":0.00013536,"INCLINATION":51.8995,"RA_OF_ASC_NODE":92.6393,"ARG_OF_PERICENTER":171.4076,"MEAN_ANOMALY":188.691,"EPHEMERIS_TYPE":0,"CLASSIFICATION_TYPE":"U","NORAD_CAT_ID":64838,"ELEMENT_SET_NO":999,"REV_AT_EPOCH":3006,"BSTAR":0.00065372419,"MEAN_MOTION_DOT":4.772e-5,"MEAN_MOTION_DDOT":0},{"OBJECT_NAME":"KUIPER-00094","OBJECT_ID":"2025-151Z","EPOCH":"2026-02-01T22:00:03.029472","MEAN_MOTION":15.0524303,"ECCENTRICITY":0.00051505,"INCLINATION":51.8897,"RA_OF_ASC_NODE":66.8747,"ARG_OF_PERICENTER":144.4775,"MEAN_ANOMALY":215.6542,"EPHEMERIS_TYPE":0,"CLASSIFICATION_TYPE":"U","NORAD_CAT_ID":64839,"ELEMENT_SET_NO":999,"REV_AT_EPOCH":3045,"BSTAR":0.00065701895,"MEAN_MOTION_DOT":9.227e-5,"MEAN_MOTION_DDOT":0},{"OBJECT_NAME":"KUIPER-00081","OBJECT_ID":"2025-171A","EPOCH":"2026-02-01T22:19:10.101792","MEAN_MOTION":14.80173782,"ECCENTRICITY":0.00018064,"INCLINATION":51.9012,"RA_OF_ASC_NODE":306.1912,"ARG_OF_PERICENTER":94.5295,"MEAN_ANOMALY":265.5874,"EPHEMERIS_TYPE":0,"CLASSIFICATION_TYPE":"U","NORAD_CAT_ID":65132,"ELEMENT_SET_NO":999,"REV_AT_EPOCH":2774,"BSTAR":0.00066084627,"MEAN_MOTION_DOT":4.849e-5,"MEAN_MOTION_DDOT":0},{"OBJECT_NAME":"KUIPER-00088","OBJECT_ID":"2025-171B","EPOCH":"2026-02-01T22:45:44.514432","MEAN_MOTION":14.8173065,"ECCENTRICITY":6.633e-5,"INCLINATION":51.9016,"RA_OF_ASC_NODE":324.0015,"ARG_OF_PERICENTER":145.3948,"MEAN_ANOMALY":214.7059,"EPHEMERIS_TYPE":0,"CLASSIFICATION_TYPE":"U","NORAD_CAT_ID":65133,"ELEMENT_SET_NO":999,"REV_AT_EPOCH":2749,"BSTAR":0.00069097938,"MEAN_MOTION_DOT":5.278e-5,"MEAN_MOTION_DDOT":0}]
